start=new Date('2022-01-24T00:00:00.000Z').valueOf();
sats=[{"MEAN_MOTION_DOT":"0.00006122","INCLINATION":"53.0549","SEMIMAJOR_AXIS":"6925.360","LAUNCH_DATE":"2021-01-20","ARG_OF_PERICENTER":"61.1913","TLE_LINE1":"1 47362U 21005P   22023.29336570  .00006122  00000-0  42955-3 0  9993","EPHEMERIS_TYPE":"0","BSTAR":"0.00042955000000","PERIOD":"95.592","PERIAPSIS":"546.105","ECCENTRICITY":"0.00016170","REF_FRAME":"TEME","TIME_SYSTEM":"UTC","MEAN_ELEMENT_THEORY":"SGP4","RCS_SIZE":"LARGE","ELEMENT_SET_NO":"999","APOAPSIS":"548.345","EPOCH":"2022-01-23T07:02:26.796480","FILE":"3280923","OBJECT_ID":"2021-005P","MEAN_ANOMALY":"298.9238","RA_OF_ASC_NODE":"344.0985","OBJECT_TYPE":"PAYLOAD","GP_ID":"194463843","DECAY_DATE":null,"REV_AT_EPOCH":"5599","MEAN_MOTION_DDOT":"0.0000000000000","CLASSIFICATION_TYPE":"U","CENTER_NAME":"EARTH","NORAD_CAT_ID":"47362","COUNTRY_CODE":"US","MEAN_MOTION":"15.06396218","TLE_LINE2":"2 47362  53.0549 344.0985 0001617  61.1913 298.9238 15.06396218 55999","SITE":"AFETR","OBJECT_NAME":"STARLINK-2076"},{"MEAN_MOTION_DOT":"0.00000689","INCLINATION":"53.0552","SEMIMAJOR_AXIS":"6925.363","LAUNCH_DATE":"2021-01-20","TLE_LINE1":"1 47363U 21005Q   22023.29703407  .00000689  00000-0  65141-4 0  9996","ARG_OF_PERICENTER":"57.9922","EPHEMERIS_TYPE":"0","PERIOD":"95.592","BSTAR":"0.00006514100000","PERIAPSIS":"546.102","REF_FRAME":"TEME","ECCENTRICITY":"0.00016260","TIME_SYSTEM":"UTC","ELEMENT_SET_NO":"999","RCS_SIZE":"LARGE","APOAPSIS":"548.354","EPOCH":"2022-01-23T07:07:43.743648","MEAN_ELEMENT_THEORY":"SGP4","OBJECT_ID":"2021-005Q","FILE":"3280923","MEAN_ANOMALY":"302.1225","OBJECT_TYPE":"PAYLOAD","RA_OF_ASC_NODE":"344.0731","DECAY_DATE":null,"GP_ID":"194464095","MEAN_MOTION_DDOT":"0.0000000000000","REV_AT_EPOCH":"5599","CLASSIFICATION_TYPE":"U","CENTER_NAME":"EARTH","MEAN_MOTION":"15.06395409","COUNTRY_CODE":"US","NORAD_CAT_ID":"47363","TLE_LINE2":"2 47363  53.0552 344.0731 0001626  57.9922 302.1225 15.06395409 55991","SITE":"AFETR","OBJECT_NAME":"STARLINK-2077"},{"REF_FRAME":"TEME","ECCENTRICITY":"0.00086210","TIME_SYSTEM":"UTC","PERIOD":"91.312","BSTAR":"-0.00010213000000","PERIAPSIS":"333.139","SEMIMAJOR_AXIS":"6717.065","LAUNCH_DATE":"2021-01-20","TLE_LINE1":"1 47365U 21005S   22023.74609654 -.00017605  00000-0 -10213-3 0  9994","ARG_OF_PERICENTER":"289.7832","EPHEMERIS_TYPE":"0","MEAN_MOTION_DOT":"-0.00017605","INCLINATION":"53.0428","TLE_LINE2":"2 47365  53.0428 192.5545 0008621 289.7832  70.2257 15.77006427 58810","SITE":"AFETR","OBJECT_NAME":"STARLINK-2080","CENTER_NAME":"EARTH","CLASSIFICATION_TYPE":"U","COUNTRY_CODE":"US","MEAN_MOTION":"15.77006427","NORAD_CAT_ID":"47365","OBJECT_TYPE":"PAYLOAD","RA_OF_ASC_NODE":"192.5545","DECAY_DATE":null,"GP_ID":"194471512","MEAN_MOTION_DDOT":"0.0000000000000","REV_AT_EPOCH":"5881","APOAPSIS":"344.720","RCS_SIZE":"LARGE","EPOCH":"2022-01-23T17:54:22.741056","ELEMENT_SET_NO":"999","MEAN_ELEMENT_THEORY":"SGP4","OBJECT_ID":"2021-005S","FILE":"3281118","MEAN_ANOMALY":"70.2257"},{"MEAN_MOTION_DOT":"0.00007382","INCLINATION":"53.0545","LAUNCH_DATE":"2021-01-20","SEMIMAJOR_AXIS":"6925.297","EPHEMERIS_TYPE":"0","ARG_OF_PERICENTER":"57.2537","TLE_LINE1":"1 47366U 21005T   22023.58821868  .00007382  00000-0  51370-3 0  9998","BSTAR":"0.00051370000000","PERIOD":"95.591","PERIAPSIS":"546.026","ECCENTRICITY":"0.00016400","REF_FRAME":"TEME","TIME_SYSTEM":"UTC","FILE":"3280923","OBJECT_ID":"2021-005T","MEAN_ELEMENT_THEORY":"SGP4","APOAPSIS":"548.297","RCS_SIZE":"LARGE","ELEMENT_SET_NO":"999","EPOCH":"2022-01-23T14:07:02.093952","MEAN_ANOMALY":"302.8610","GP_ID":"194463594","DECAY_DATE":null,"RA_OF_ASC_NODE":"342.7805","OBJECT_TYPE":"PAYLOAD","REV_AT_EPOCH":"5603","MEAN_MOTION_DDOT":"0.0000000000000","CENTER_NAME":"EARTH","CLASSIFICATION_TYPE":"U","NORAD_CAT_ID":"47366","COUNTRY_CODE":"US","MEAN_MOTION":"15.06416919","TLE_LINE2":"2 47366  53.0545 342.7805 0001640  57.2537 302.8610 15.06416919 56035","OBJECT_NAME":"STARLINK-2081","SITE":"AFETR"},{"INCLINATION":"53.0561","MEAN_MOTION_DOT":"0.00001411","EPHEMERIS_TYPE":"0","ARG_OF_PERICENTER":"62.4009","TLE_LINE1":"1 47367U 21005U   22023.28229117  .00001411  00000-0  11365-3 0  9992","LAUNCH_DATE":"2021-01-20","SEMIMAJOR_AXIS":"6925.362","PERIAPSIS":"545.987","BSTAR":"0.00011365000000","PERIOD":"95.592","TIME_SYSTEM":"UTC","ECCENTRICITY":"0.00017900","REF_FRAME":"TEME","MEAN_ANOMALY":"297.7162","FILE":"3280923","OBJECT_ID":"2021-005U","MEAN_ELEMENT_THEORY":"SGP4","RCS_SIZE":"LARGE","ELEMENT_SET_NO":"999","APOAPSIS":"548.466","EPOCH":"2022-01-23T06:46:29.957088","REV_AT_EPOCH":"5599","MEAN_MOTION_DDOT":"0.0000000000000","GP_ID":"194463344","DECAY_DATE":null,"RA_OF_ASC_NODE":"344.1573","OBJECT_TYPE":"PAYLOAD","NORAD_CAT_ID":"47367","MEAN_MOTION":"15.06395678","COUNTRY_CODE":"US","CLASSIFICATION_TYPE":"U","CENTER_NAME":"EARTH","OBJECT_NAME":"STARLINK-2082","SITE":"AFETR","TLE_LINE2":"2 47367  53.0561 344.1573 0001790  62.4009 297.7162 15.06395678 55996"},{"MEAN_MOTION_DOT":"0.00007226","INCLINATION":"53.0546","LAUNCH_DATE":"2021-01-20","SEMIMAJOR_AXIS":"6925.346","EPHEMERIS_TYPE":"0","TLE_LINE1":"1 47368U 21005V   22023.60667047  .00007226  00000-0  50349-3 0  9992","ARG_OF_PERICENTER":"62.9322","PERIOD":"95.592","BSTAR":"0.00050349000000","PERIAPSIS":"546.021","REF_FRAME":"TEME","ECCENTRICITY":"0.00017180","TIME_SYSTEM":"UTC","OBJECT_ID":"2021-005V","FILE":"3281017","RCS_SIZE":"LARGE","APOAPSIS":"548.401","ELEMENT_SET_NO":"999","EPOCH":"2022-01-23T14:33:36.328608","MEAN_ELEMENT_THEORY":"SGP4","MEAN_ANOMALY":"297.1842","DECAY_DATE":null,"GP_ID":"194469399","OBJECT_TYPE":"PAYLOAD","RA_OF_ASC_NODE":"342.6861","MEAN_MOTION_DDOT":"0.0000000000000","REV_AT_EPOCH":"5698","CENTER_NAME":"EARTH","CLASSIFICATION_TYPE":"U","COUNTRY_CODE":"US","MEAN_MOTION":"15.06400863","NORAD_CAT_ID":"47368","TLE_LINE2":"2 47368  53.0546 342.6861 0001718  62.9322 297.1842 15.06400863 56988","OBJECT_NAME":"STARLINK-2084","SITE":"AFETR"},{"RA_OF_ASC_NODE":"322.9718","OBJECT_TYPE":"PAYLOAD","GP_ID":"194464838","DECAY_DATE":null,"REV_AT_EPOCH":"5631","MEAN_MOTION_DDOT":"0.0000000000000","MEAN_ELEMENT_THEORY":"SGP4","ELEMENT_SET_NO":"999","RCS_SIZE":"LARGE","APOAPSIS":"548.385","EPOCH":"2022-01-23T13:05:59.367264","FILE":"3280923","OBJECT_ID":"2021-005W","MEAN_ANOMALY":"294.5356","TLE_LINE2":"2 47369  53.0562 322.9718 0001720  65.5813 294.5356 15.06406300 56316","SITE":"AFETR","OBJECT_NAME":"STARLINK-2085","CENTER_NAME":"EARTH","CLASSIFICATION_TYPE":"U","NORAD_CAT_ID":"47369","COUNTRY_CODE":"US","MEAN_MOTION":"15.06406300","SEMIMAJOR_AXIS":"6925.329","LAUNCH_DATE":"2021-01-20","ARG_OF_PERICENTER":"65.5813","TLE_LINE1":"1 47369U 21005W   22023.54582601  .00003662  00000-0  26455-3 0  9999","EPHEMERIS_TYPE":"0","MEAN_MOTION_DOT":"0.00003662","INCLINATION":"53.0562","ECCENTRICITY":"0.00017200","REF_FRAME":"TEME","TIME_SYSTEM":"UTC","BSTAR":"0.00026455000000","PERIOD":"95.592","PERIAPSIS":"546.003"},{"MEAN_ANOMALY":"302.9315","FILE":"3280923","OBJECT_ID":"2021-005X","MEAN_ELEMENT_THEORY":"SGP4","EPOCH":"2022-01-23T12:04:56.548128","RCS_SIZE":"LARGE","APOAPSIS":"548.331","ELEMENT_SET_NO":"999","REV_AT_EPOCH":"5659","MEAN_MOTION_DDOT":"0.0000000000000","GP_ID":"194463095","DECAY_DATE":null,"RA_OF_ASC_NODE":"303.1605","OBJECT_TYPE":"PAYLOAD","NORAD_CAT_ID":"47370","MEAN_MOTION":"15.06410473","COUNTRY_CODE":"US","CLASSIFICATION_TYPE":"U","CENTER_NAME":"EARTH","OBJECT_NAME":"STARLINK-2086","SITE":"AFETR","TLE_LINE2":"2 47370  53.0551 303.1605 0001660  57.1833 302.9315 15.06410473 56599","INCLINATION":"53.0551","MEAN_MOTION_DOT":"0.00002695","EPHEMERIS_TYPE":"0","ARG_OF_PERICENTER":"57.1833","TLE_LINE1":"1 47370U 21005X   22023.50343227  .00002695  00000-0  19969-3 0  9993","LAUNCH_DATE":"2021-01-20","SEMIMAJOR_AXIS":"6925.316","PERIAPSIS":"546.032","BSTAR":"0.00019969000000","PERIOD":"95.591","TIME_SYSTEM":"UTC","ECCENTRICITY":"0.00016600","REF_FRAME":"TEME"},{"SITE":"AFETR","OBJECT_NAME":"STARLINK-2088","TLE_LINE2":"2 47371  53.0562 342.6229 0001600  67.6214 292.4944 15.06397075 56048","NORAD_CAT_ID":"47371","COUNTRY_CODE":"US","MEAN_MOTION":"15.06397075","CENTER_NAME":"EARTH","CLASSIFICATION_TYPE":"U","REV_AT_EPOCH":"5604","MEAN_MOTION_DDOT":"0.0000000000000","RA_OF_ASC_NODE":"342.6229","OBJECT_TYPE":"PAYLOAD","GP_ID":"194469000","DECAY_DATE":null,"MEAN_ANOMALY":"292.4944","MEAN_ELEMENT_THEORY":"SGP4","APOAPSIS":"548.331","RCS_SIZE":"LARGE","EPOCH":"2022-01-23T14:54:49.742784","ELEMENT_SET_NO":"999","FILE":"3281018","OBJECT_ID":"2021-005Y","TIME_SYSTEM":"UTC","ECCENTRICITY":"0.00016000","REF_FRAME":"TEME","PERIAPSIS":"546.114","BSTAR":"0.00012432000000","PERIOD":"95.592","ARG_OF_PERICENTER":"67.6214","TLE_LINE1":"1 47371U 21005Y   22023.62140906  .00001571  00000-0  12432-3 0  9996","EPHEMERIS_TYPE":"0","SEMIMAJOR_AXIS":"6925.358","LAUNCH_DATE":"2021-01-20","INCLINATION":"53.0562","MEAN_MOTION_DOT":"0.00001571"},{"TLE_LINE2":"2 47372  53.0562 337.7705 0001595  62.9142 297.2010 15.06410506 56103","SITE":"AFETR","OBJECT_NAME":"STARLINK-2089","CENTER_NAME":"EARTH","CLASSIFICATION_TYPE":"U","NORAD_CAT_ID":"47372","COUNTRY_CODE":"US","MEAN_MOTION":"15.06410506","RA_OF_ASC_NODE":"337.7705","OBJECT_TYPE":"PAYLOAD","GP_ID":"194464096","DECAY_DATE":null,"REV_AT_EPOCH":"5610","MEAN_MOTION_DDOT":"0.0000000000000","MEAN_ELEMENT_THEORY":"SGP4","APOAPSIS":"548.286","RCS_SIZE":"LARGE","EPOCH":"2022-01-23T14:03:40.881312","ELEMENT_SET_NO":"999","FILE":"3280923","OBJECT_ID":"2021-005Z","MEAN_ANOMALY":"297.2010","ECCENTRICITY":"0.00015950","REF_FRAME":"TEME","TIME_SYSTEM":"UTC","BSTAR":"0.00027109000000","PERIOD":"95.591","PERIAPSIS":"546.077","SEMIMAJOR_AXIS":"6925.316","LAUNCH_DATE":"2021-01-20","ARG_OF_PERICENTER":"62.9142","TLE_LINE1":"1 47372U 21005Z   22023.58588983  .00003760  00000-0  27109-3 0  9992","EPHEMERIS_TYPE":"0","MEAN_MOTION_DOT":"0.00003760","INCLINATION":"53.0562"}];
